IRIDIUM 155             
1 43573U 18061E   25070.54581318  .00000003  00000+0 -61334-5 0  9992
2 43573  86.3919 249.9637 0002058  83.3384 276.8046 14.34217434347048
IRIDIUM 154             
1 43574U 18061F   25070.52678526  .00000135  00000+0  41080-4 0  9999
2 43574  86.3922 250.0823 0002015  92.5203 267.6223 14.34218792347096
IRIDIUM 163             
1 43575U 18061G   25070.57752740 -.00000010  00000+0 -10491-4 0  9992
2 43575  86.3920 249.9912 0002094  92.7493 267.3942 14.34217528347070
IRIDIUM 156             
1 43576U 18061H   25070.55215619 -.00000054  00000+0 -26353-4 0  9992
2 43576  86.3921 250.0086 0001973  79.6298 280.5121 14.34217329347063
IRIDIUM 164             
1 43577U 18061J   25070.53312865  .00000053  00000+0  11974-4 0  9992
2 43577  86.3921 250.0494 0001879  94.6520 265.4891 14.34217899347100
IRIDIUM 159             
1 43578U 18061K   25070.57118467  .00000054  00000+0  12103-4 0  9995
2 43578  86.3919 249.9799 0002101  97.7566 262.3868 14.34217837347074
IRIDIUM 180             
1 43922U 19002A   25070.57068098  .00000018  00000+0 -72691-6 0  9999
2 43922  86.4042 186.9189 0002280  96.5149 263.6306 14.34216663322687
IRIDIUM 176             
1 43923U 19002B   25070.57076463  .00002165  00000+0  33955-3 0  9996
2 43923  86.6183 186.9218 0002180  96.7398 263.4067 14.72230990331184
IRIDIUM 168             
1 43924U 19002C   25070.56433950 -.00000133  00000+0 -54413-4 0  9992
2 43924  86.4046 186.9859 0002096  99.3430 260.8003 14.34217611322661
IRIDIUM 173             
1 43925U 19002D   25070.55164604  .00000507  00000+0  17404-3 0  9990
2 43925  86.4041 186.8988 0002284  95.1077 265.0380 14.34214827322648
IRIDIUM 169             
1 43926U 19002E   25070.63709830  .00000737  00000+0  23429-3 0  9995
2 43926  86.4244 218.4372 0003473  75.4603 284.6980 14.38613928323722
IRIDIUM 172             
1 43927U 19002F   25070.61507807  .00000604  00000+0  20844-3 0  9995
2 43927  86.4042 186.8792 0002176 100.8096 259.3345 14.34220851322662
IRIDIUM 175             
1 43928U 19002G   25070.29369741  .00001681  00000+0  26257-3 0  9993
2 43928  86.1538 145.1553 0002329  68.2293 291.9172 14.72258209331131
IRIDIUM 171             
1 43929U 19002H   25070.38674600  .00000028  00000+0  28863-5 0  9998
2 43929  86.4050 187.2291 0001662  95.4125 264.7261 14.34217871322624
IRIDIUM 170             
1 43930U 19002J   25070.57697011  .00000458  00000+0  68735-4 0  9990
2 43930  86.6163 186.9222 0002171  85.8007 274.3458 14.72257614331199
IRIDIUM 167             
1 43931U 19002K   25070.38040830  .00000568  00000+0  19591-3 0  9998
2 43931  86.4041 186.9954 0002028  84.7763 275.3665 14.34218566322623
IRIDIUM 181             
1 56726U 23068S   25070.54075940  .00000284  00000+0  78265-4 0  9998
2 56726  86.4458 250.0118 0001680  82.9875 277.1517 14.43311768 95703
IRIDIUM 177             
1 56727U 23068T   25070.58959060  .00002993  00000+0  39027-3 0  9998
2 56727  86.2031 188.4121 0002240  90.3040 269.8438 14.80237895 97933
IRIDIUM 174             
1 56728U 23068U   25070.58414200  .00003017  00000+0  39383-3 0  9994
2 56728  86.2041 188.5391 0001886 102.8975 257.2457 14.80206275 97936
IRIDIUM 178             
1 56729U 23068V   25070.30830202  .00002787  00000+0  36320-3 0  9990
2 56729  86.5789 218.7434 0001515 114.6203 245.5177 14.80253032 97894
IRIDIUM 179             
1 56730U 23068W   25070.37049489  .00002204  00000+0  28658-3 0  9997
2 56730  86.6780 226.2081 0002123  95.5475 264.5989 14.80235103 97907
